STARLINK-1983
1 17630C 21012L   21326.11474294  .00006183  00000-0  41419-3 0  3266
2 17630  53.0539 253.2098 0001689  73.2688   4.2837 15.06396809    16
